{"fetched_at":"2026-07-10T07:58:39.953Z","source":"https://celestrak.org/NORAD/elements/gp.php?GROUP=kuiper&FORMAT=JSON","constellation":"kuiper","records":[{"OBJECT_NAME":"KUIPER-00027","OBJECT_ID":"2025-088S","EPOCH":"2026-07-09T05:08:22.287840","CLASSIFICATION_TYPE":"U","MEAN_MOTION":14.79925702,"ECCENTRICITY":0.00005553,"INCLINATION":51.9013,"RA_OF_ASC_NODE":278.2177,"ARG_OF_PERICENTER":91.5019,"MEAN_ANOMALY":268.6007,"EPHEMERIS_TYPE":0,"NORAD_CAT_ID":63740,"ELEMENT_SET_NO":999,"REV_AT_EPOCH":6561,"BSTAR":0.000048976415,"MEAN_MOTION_DOT":0.00000152,"MEAN_MOTION_DDOT":0},{"OBJECT_NAME":"KUIPER-00028","OBJECT_ID":"2025-088T","EPOCH":"2026-07-09T06:00:51.721632","CLASSIFICATION_TYPE":"U","MEAN_MOTION":14.79928945,"ECCENTRICITY":0.00004814,"INCLINATION":51.9014,"RA_OF_ASC_NODE":275.509,"ARG_OF_PERICENTER":107.5167,"MEAN_ANOMALY":252.5848,"EPHEMERIS_TYPE":0,"NORAD_CAT_ID":63741,"ELEMENT_SET_NO":999,"REV_AT_EPOCH":6606,"BSTAR":0.000094620279,"MEAN_MOTION_DOT":0.000005,"MEAN_MOTION_DDOT":0},{"OBJECT_NAME":"KUIPER-00029","OBJECT_ID":"2025-088U","EPOCH":"2026-07-09T05:26:19.389984","CLASSIFICATION_TYPE":"U","MEAN_MOTION":14.79914546,"ECCENTRICITY":0.00001843,"INCLINATION":51.9021,"RA_OF_ASC_NODE":274.2983,"ARG_OF_PERICENTER":186.9249,"MEAN_ANOMALY":173.1711,"EPHEMERIS_TYPE":0,"NORAD_CAT_ID":63742,"ELEMENT_SET_NO":999,"REV_AT_EPOCH":6560,"BSTAR":0.00017573667,"MEAN_MOTION_DOT":0.00001118,"MEAN_MOTION_DDOT":0},{"OBJECT_NAME":"KUIPER-00030","OBJECT_ID":"2025-088V","EPOCH":"2026-07-08T14:09:52.493760","CLASSIFICATION_TYPE":"U","MEAN_MOTION":14.7992501,"ECCENTRICITY":0.00006563,"INCLINATION":51.9014,"RA_OF_ASC_NODE":295.9364,"ARG_OF_PERICENTER":109.0257,"MEAN_ANOMALY":251.0777,"EPHEMERIS_TYPE":0,"NORAD_CAT_ID":63743,"ELEMENT_SET_NO":999,"REV_AT_EPOCH":6553,"BSTAR":0.00013400871,"MEAN_MOTION_DOT":0.000008,"MEAN_MOTION_DDOT":0},{"OBJECT_NAME":"KUIPER-00031","OBJECT_ID":"2025-088W","EPOCH":"2026-07-09T05:21:15.240384","CLASSIFICATION_TYPE":"U","MEAN_MOTION":14.76538805,"ECCENTRICITY":0.00018896,"INCLINATION":51.9004,"RA_OF_ASC_NODE":277.9076,"ARG_OF_PERICENTER":183.997,"MEAN_ANOMALY":176.0976,"EPHEMERIS_TYPE":0,"NORAD_CAT_ID":63744,"ELEMENT_SET_NO":999,"REV_AT_EPOCH":6555,"BSTAR":0.00035308168,"MEAN_MOTION_DOT":0.0000227,"MEAN_MOTION_DDOT":0},{"OBJECT_NAME":"KUIPER-00032","OBJECT_ID":"2025-088X","EPOCH":"2026-07-09T14:35:21.926688","CLASSIFICATION_TYPE":"U","MEAN_MOTION":15.40816172,"ECCENTRICITY":0.0003126,"INCLINATION":51.8653,"RA_OF_ASC_NODE":153.0531,"ARG_OF_PERICENTER":185.933,"MEAN_ANOMALY":174.1621,"EPHEMERIS_TYPE":0,"NORAD_CAT_ID":63745,"ELEMENT_SET_NO":999,"REV_AT_EPOCH":6832,"BSTAR":0.00025843,"MEAN_MOTION_DOT":0.00010372,"MEAN_MOTION_DDOT":0},{"OBJECT_NAME":"KUIPER-00033","OBJECT_ID":"2025-088Y","EPOCH":"2026-07-09T18:08:20.591232","CLASSIFICATION_TYPE":"U","MEAN_MOTION":14.79928241,"ECCENTRICITY":0.000056,"INCLINATION":51.901,"RA_OF_ASC_NODE":305.8059,"ARG_OF_PERICENTER":109.953,"MEAN_ANOMALY":250.1492,"EPHEMERIS_TYPE":0,"NORAD_CAT_ID":63746,"ELEMENT_SET_NO":999,"REV_AT_EPOCH":6569,"BSTAR":0.00033535,"MEAN_MOTION_DOT":0.00002336,"MEAN_MOTION_DDOT":0},{"OBJECT_NAME":"KUIPER-00034","OBJECT_ID":"2025-088Z","EPOCH":"2026-07-09T12:37:35.719968","CLASSIFICATION_TYPE":"U","MEAN_MOTION":14.7992138,"ECCENTRICITY":0.0000601,"INCLINATION":51.9018,"RA_OF_ASC_NODE":269.3547,"ARG_OF_PERICENTER":67.4475,"MEAN_ANOMALY":292.6551,"EPHEMERIS_TYPE":0,"NORAD_CAT_ID":63747,"ELEMENT_SET_NO":999,"REV_AT_EPOCH":6586,"BSTAR":0.00011314,"MEAN_MOTION_DOT":0.00000641,"MEAN_MOTION_DDOT":0},{"OBJECT_NAME":"KUIPER-00035","OBJECT_ID":"2025-088AA","EPOCH":"2026-07-09T07:07:02.892000","CLASSIFICATION_TYPE":"U","MEAN_MOTION":14.79928093,"ECCENTRICITY":0.00006473,"INCLINATION":51.9003,"RA_OF_ASC_NODE":295.344,"ARG_OF_PERICENTER":105.4661,"MEAN_ANOMALY":254.6373,"EPHEMERIS_TYPE":0,"NORAD_CAT_ID":63748,"ELEMENT_SET_NO":999,"REV_AT_EPOCH":6553,"BSTAR":0.00011860523,"MEAN_MOTION_DOT":0.00000683,"MEAN_MOTION_DDOT":0},{"OBJECT_NAME":"KUIPER-00037","OBJECT_ID":"2025-088AB","EPOCH":"2026-07-08T06:38:12.871104","CLASSIFICATION_TYPE":"U","MEAN_MOTION":14.79920678,"ECCENTRICITY":0.0000521,"INCLINATION":51.9021,"RA_OF_ASC_NODE":298.7134,"ARG_OF_PERICENTER":72.1729,"MEAN_ANOMALY":287.929,"EPHEMERIS_TYPE":0,"NORAD_CAT_ID":63749,"ELEMENT_SET_NO":999,"REV_AT_EPOCH":6618,"BSTAR":-0.000048031724,"MEAN_MOTION_DOT":-0.00000587,"MEAN_MOTION_DDOT":0},{"OBJECT_NAME":"KUIPER-00038","OBJECT_ID":"2025-088AC","EPOCH":"2026-07-09T06:41:44.428416","CLASSIFICATION_TYPE":"U","MEAN_MOTION":14.79921823,"ECCENTRICITY":0.00005792,"INCLINATION":51.9031,"RA_OF_ASC_NODE":280.4456,"ARG_OF_PERICENTER":91.106,"MEAN_ANOMALY":268.9969,"EPHEMERIS_TYPE":0,"NORAD_CAT_ID":63750,"ELEMENT_SET_NO":999,"REV_AT_EPOCH":6552,"BSTAR":-0.000058400261,"MEAN_MOTION_DOT":-0.00000666,"MEAN_MOTION_DDOT":0},{"OBJECT_NAME":"KUIPER-00039","OBJECT_ID":"2025-134A","EPOCH":"2026-07-09T01:10:30.110304","CLASSIFICATION_TYPE":"U","MEAN_MOTION":14.79924089,"ECCENTRICITY":0.00006041,"INCLINATION":51.9009,"RA_OF_ASC_NODE":56.4588,"ARG_OF_PERICENTER":110.5203,"MEAN_ANOMALY":249.5824,"EPHEMERIS_TYPE":0,"NORAD_CAT_ID":64500,"ELEMENT_SET_NO":999,"REV_AT_EPOCH":5804,"BSTAR":0.00030285504,"MEAN_MOTION_DOT":0.00002088,"MEAN_MOTION_DDOT":0},{"OBJECT_NAME":"KUIPER-00040","OBJECT_ID":"2025-134B","EPOCH":"2026-07-09T01:43:36.401376","CLASSIFICATION_TYPE":"U","MEAN_MOTION":14.79922761,"ECCENTRICITY":0.00007007,"INCLINATION":51.8969,"RA_OF_ASC_NODE":66.4379,"ARG_OF_PERICENTER":110.0373,"MEAN_ANOMALY":250.0664,"EPHEMERIS_TYPE":0,"NORAD_CAT_ID":64501,"ELEMENT_SET_NO":999,"REV_AT_EPOCH":5790,"BSTAR":0.00030196443,"MEAN_MOTION_DOT":0.00002081,"MEAN_MOTION_DDOT":0},{"OBJECT_NAME":"KUIPER-00041","OBJECT_ID":"2025-134C","EPOCH":"2026-07-09T00:51:04.425696","CLASSIFICATION_TYPE":"U","MEAN_MOTION":14.79929659,"ECCENTRICITY":0.00007443,"INCLINATION":51.8992,"RA_OF_ASC_NODE":68.9838,"ARG_OF_PERICENTER":102.5751,"MEAN_ANOMALY":257.5294,"EPHEMERIS_TYPE":0,"NORAD_CAT_ID":64502,"ELEMENT_SET_NO":999,"REV_AT_EPOCH":5786,"BSTAR":0.0003465112,"MEAN_MOTION_DOT":0.00002421,"MEAN_MOTION_DDOT":0},{"OBJECT_NAME":"KUIPER-00042","OBJECT_ID":"2025-134D","EPOCH":"2026-07-08T20:55:43.687488","CLASSIFICATION_TYPE":"U","MEAN_MOTION":14.79924274,"ECCENTRICITY":0.00006509,"INCLINATION":51.8987,"RA_OF_ASC_NODE":64.6857,"ARG_OF_PERICENTER":94.028,"MEAN_ANOMALY":266.0757,"EPHEMERIS_TYPE":0,"NORAD_CAT_ID":64503,"ELEMENT_SET_NO":999,"REV_AT_EPOCH":5791,"BSTAR":0.00031873519,"MEAN_MOTION_DOT":0.00002209,"MEAN_MOTION_DDOT":0},{"OBJECT_NAME":"KUIPER-00043","OBJECT_ID":"2025-134E","EPOCH":"2026-07-09T00:21:51.842304","CLASSIFICATION_TYPE":"U","MEAN_MOTION":14.7992835,"ECCENTRICITY":0.00008139,"INCLINATION":51.9013,"RA_OF_ASC_NODE":56.5493,"ARG_OF_PERICENTER":104.0459,"MEAN_ANOMALY":256.0594,"EPHEMERIS_TYPE":0,"NORAD_CAT_ID":64504,"ELEMENT_SET_NO":999,"REV_AT_EPOCH":5804,"BSTAR":0.00031630249,"MEAN_MOTION_DOT":0.00002191,"MEAN_MOTION_DDOT":0}]}
