KUIPER-00027            
1 63740U 25088S   26190.21414685  .00000152  00000+0  48976-4 0  9997
2 63740  51.9013 278.2177 0000555  91.5019 268.6007 14.79925702 65618
KUIPER-00028            
1 63741U 25088T   26190.25059863  .00000500  00000+0  94620-4 0  9999
2 63741  51.9014 275.5090 0000481 107.5167 252.5848 14.79928945 66061
KUIPER-00029            
1 63742U 25088U   26190.22661331  .00001118  00000+0  17574-3 0  9994
2 63742  51.9021 274.2983 0000184 186.9249 173.1711 14.79914546 65607
KUIPER-00030            
1 63743U 25088V   26189.59019090  .00000800  00000+0  13401-3 0  9994
2 63743  51.9014 295.9364 0000656 109.0257 251.0777 14.79925010 65530
KUIPER-00031            
1 63744U 25088W   26190.22309306  .00002270  00000+0  35308-3 0  9992
2 63744  51.9004 277.9076 0001889 183.9970 176.0976 14.76538805 65550
KUIPER-00032            
1 63745U 25088X   26190.60789267  .00010372  00000+0  25843-3 0  9998
2 63745  51.8653 153.0531 0003126 185.9330 174.1621 15.40816172 68320
KUIPER-00033            
1 63746U 25088Y   26190.75579388  .00002336  00000+0  33535-3 0  9994
2 63746  51.9010 305.8059 0000560 109.9530 250.1492 14.79928241 65698
KUIPER-00034            
1 63747U 25088Z   26190.52610787  .00000641  00000+0  11314-3 0  9997
2 63747  51.9018 269.3547 0000601  67.4475 292.6551 14.79921380 65868
KUIPER-00035            
1 63748U 25088AA  26190.29656125  .00000683  00000+0  11861-3 0  9991
2 63748  51.9003 295.3440 0000647 105.4661 254.6373 14.79928093 65536
KUIPER-00037            
1 63749U 25088AB  26189.27653786 -.00000587  00000+0 -48032-4 0  9994
2 63749  51.9021 298.7134 0000521  72.1729 287.9290 14.79920678 66180
KUIPER-00038            
1 63750U 25088AC  26190.27898644 -.00000666  00000+0 -58400-4 0  9990
2 63750  51.9031 280.4456 0000579  91.1060 268.9969 14.79921823 65522
KUIPER-00039            
1 64500U 25134A   26190.04895961  .00002088  00000+0  30286-3 0  9999
2 64500  51.9009  56.4588 0000604 110.5203 249.5824 14.79924089 58043
KUIPER-00040            
1 64501U 25134B   26190.07194909  .00002081  00000+0  30196-3 0  9990
2 64501  51.8969  66.4379 0000700 110.0373 250.0664 14.79922761 57905
KUIPER-00041            
1 64502U 25134C   26190.03546789  .00002421  00000+0  34651-3 0  9992
2 64502  51.8992  68.9838 0000744 102.5751 257.5294 14.79929659 57862
KUIPER-00042            
1 64503U 25134D   26189.87203342  .00002209  00000+0  31874-3 0  9996
2 64503  51.8987  64.6857 0000650  94.0280 266.0757 14.79924274 57912
KUIPER-00043            
1 64504U 25134E   26190.01518336  .00002191  00000+0  31630-3 0  9997
2 64504  51.9013  56.5493 0000813 104.0459 256.0594 14.79928350 58043
